[{"OBJECT_NAME":"HULIANWANG DIGUI-120","OBJECT_ID":"2025-295B","EPOCH":"2026-03-09T15:52:52.087008","MEAN_MOTION":13.43425316,"ECCENTRICITY":0.00016727,"INCLINATION":50.006,"RA_OF_ASC_NODE":23.094,"ARG_OF_PERICENTER":357.7602,"MEAN_ANOMALY":2.3269,"EPHEMERIS_TYPE":0,"CLASSIFICATION_TYPE":"U","NORAD_CAT_ID":67060,"ELEMENT_SET_NO":999,"REV_AT_EPOCH":1225,"BSTAR":0.00011085235,"MEAN_MOTION_DOT":-6.5e-7,"MEAN_MOTION_DDOT":0},{"OBJECT_NAME":"SCOUT G-1 DEB","OBJECT_ID":"1988-074L","EPOCH":"2026-02-26T16:15:47.257056","MEAN_MOTION":13.53976653,"ECCENTRICITY":0.00829728,"INCLINATION":90.005,"RA_OF_ASC_NODE":8.9061,"ARG_OF_PERICENTER":75.1128,"MEAN_ANOMALY":42.6062,"EPHEMERIS_TYPE":0,"CLASSIFICATION_TYPE":"U","NORAD_CAT_ID":28675,"ELEMENT_SET_NO":999,"REV_AT_EPOCH":59826,"BSTAR":0.0010100253,"MEAN_MOTION_DOT":7.09e-6,"MEAN_MOTION_DDOT":0}]
